SHIJIAN-6 02B (SJ-6 02B)
1 29506U 06046B   26091.49614266  .00003017  00000+0  24006-3 0  9999
2 29506  97.7099 121.0548 0012514 329.7357  30.3143 15.01115818 59239
FGRST (GLAST)           
1 33053U 08029A   26091.47738750  .00004711  00000+0  17794-3 0  9995
2 33053  25.5836  16.9425 0008421 139.2283 220.8886 15.23508545984121
SDO                     
1 36395U 10005A   26090.49913229 -.00000053  00000+0  00000+0 0  9995
2 36395  34.4901  87.5132 0000617  30.3558 148.9016  1.00274084 59282
CRYOSAT 2               
1 36508U 10013A   26091.51128232  .00000293  00000+0  71971-4 0  9991
2 36508  92.0249 258.7080 0002343  97.3354 262.8120 14.51909864846953
X-SAT                   
1 37389U 11015C   26091.49033765  .00000440  00000+0  20482-3 0  9999
2 37389  98.3453  72.1924 0013326 204.0701 155.9858 14.25182918776752
GCOM-W1 (SHIZUKU)       
1 38337U 12025A   26091.40750062  .00000652  00000+0  15472-3 0  9990
2 38337  98.2085  33.1322 0001185  74.3175  37.9902 14.57130518737859
NUSTAR                  
1 38358U 12031A   26091.58334490  .00008947  00000+0  50971-3 0  9990
2 38358   6.0255 248.4236 0007595  44.8760 161.8110 15.08027221  1301
NEOSSAT                 
1 39089U 13009D   26091.41431129  .00000194  00000+0  81818-4 0  9998
2 39089  98.4158 273.2764 0012108 113.3311 246.9151 14.35797391685727
BRITE-AUSTRIA           
1 39091U 13009F   26091.45102032  .00000232  00000+0  93514-4 0  9992
2 39091  98.3974 272.7909 0011335 107.7606 252.4819 14.36508975686032
IRIS                    
1 39197U 13033A   26091.12238405  .00001775  00000+0  20999-3 0  9993
2 39197  97.9387 290.6233 0023808 208.4067 151.5852 14.85715156688931
HISAKI (SPRINT-A)       
1 39253U 13049A   26091.38678485  .00000142  00000+0  10589-3 0  9998
2 39253  29.7189 250.4672 0136406 114.1951 247.2944 13.55533988620996
CASSIOPE                
1 39265U 13055A   26091.46747632  .00035984 -32061-6  42847-3 0  9992
2 39265  80.9177 159.5245 0307823 320.0530  37.8403 15.20462081655994
STSAT-3                 
1 39422U 13066G   26091.52688584  .00005168  00000+0  39550-3 0  9994
2 39422  97.6145  62.7213 0009266 293.5934  66.4317 15.02288998672692
SWARM B                 
1 39451U 13067A   26091.52585881  .00004493  00000+0  16298-3 0  9997
2 39451  87.7509   5.5759 0003018  77.1405 283.0181 15.28073192671530
SWARM A                 
1 39452U 13067B   26091.46296073  .00013453  00000+0  24528-3 0  9994
2 39452  87.3277  84.7107 0003466  95.7405 264.4250 15.49308795694367
SWARM C                 
1 39453U 13067C   26091.46288410  .00013480  00000+0  24581-3 0  9990
2 39453  87.3277  83.2918 0003468  96.0462 264.1193 15.49305407694327
BRITE-CA1 (TORONTO)     
1 40020U 14033L   26091.32547784  .00001711  00000+0  26415-3 0  9995
2 40020  97.9607 221.7312 0079313 162.1199 198.2828 14.72535306630908
