[{"OBJECT_NAME":"SHIJIAN-6 02B (SJ-6 02B)","OBJECT_ID":"2006-046B","EPOCH":"2026-04-01T11:54:26.725824","MEAN_MOTION":15.01115818,"ECCENTRICITY":0.0012514,"INCLINATION":97.7099,"RA_OF_ASC_NODE":121.0548,"ARG_OF_PERICENTER":329.7357,"MEAN_ANOMALY":30.3143,"EPHEMERIS_TYPE":0,"CLASSIFICATION_TYPE":"U","NORAD_CAT_ID":29506,"ELEMENT_SET_NO":999,"REV_AT_EPOCH":5923,"BSTAR":0.00024006,"MEAN_MOTION_DOT":3.017e-5,"MEAN_MOTION_DDOT":0},{"OBJECT_NAME":"FGRST (GLAST)","OBJECT_ID":"2008-029A","EPOCH":"2026-04-01T11:27:26.280000","MEAN_MOTION":15.23508545,"ECCENTRICITY":0.0008421,"INCLINATION":25.5836,"RA_OF_ASC_NODE":16.9425,"ARG_OF_PERICENTER":139.2283,"MEAN_ANOMALY":220.8886,"EPHEMERIS_TYPE":0,"CLASSIFICATION_TYPE":"U","NORAD_CAT_ID":33053,"ELEMENT_SET_NO":999,"REV_AT_EPOCH":98412,"BSTAR":0.00017794,"MEAN_MOTION_DOT":4.711e-5,"MEAN_MOTION_DDOT":0},{"OBJECT_NAME":"SDO","OBJECT_ID":"2010-005A","EPOCH":"2026-03-31T11:58:45.029856","MEAN_MOTION":1.00274084,"ECCENTRICITY":6.17e-5,"INCLINATION":34.4901,"RA_OF_ASC_NODE":87.5132,"ARG_OF_PERICENTER":30.3558,"MEAN_ANOMALY":148.9016,"EPHEMERIS_TYPE":0,"CLASSIFICATION_TYPE":"U","NORAD_CAT_ID":36395,"ELEMENT_SET_NO":999,"REV_AT_EPOCH":5928,"BSTAR":0,"MEAN_MOTION_DOT":-5.3e-7,"MEAN_MOTION_DDOT":0},{"OBJECT_NAME":"CRYOSAT 2","OBJECT_ID":"2010-013A","EPOCH":"2026-04-01T12:16:14.792448","MEAN_MOTION":14.51909864,"ECCENTRICITY":0.0002343,"INCLINATION":92.0249,"RA_OF_ASC_NODE":258.708,"ARG_OF_PERICENTER":97.3354,"MEAN_ANOMALY":262.812,"EPHEMERIS_TYPE":0,"CLASSIFICATION_TYPE":"U","NORAD_CAT_ID":36508,"ELEMENT_SET_NO":999,"REV_AT_EPOCH":84695,"BSTAR":7.1971e-5,"MEAN_MOTION_DOT":2.93e-6,"MEAN_MOTION_DDOT":0},{"OBJECT_NAME":"X-SAT","OBJECT_ID":"2011-015C","EPOCH":"2026-04-01T11:46:05.172960","MEAN_MOTION":14.25182918,"ECCENTRICITY":0.0013326,"INCLINATION":98.3453,"RA_OF_ASC_NODE":72.1924,"ARG_OF_PERICENTER":204.0701,"MEAN_ANOMALY":155.9858,"EPHEMERIS_TYPE":0,"CLASSIFICATION_TYPE":"U","NORAD_CAT_ID":37389,"ELEMENT_SET_NO":999,"REV_AT_EPOCH":77675,"BSTAR":0.00020482,"MEAN_MOTION_DOT":4.4e-6,"MEAN_MOTION_DDOT":0},{"OBJECT_NAME":"GCOM-W1 (SHIZUKU)","OBJECT_ID":"2012-025A","EPOCH":"2026-04-01T09:46:48.053568","MEAN_MOTION":14.57130518,"ECCENTRICITY":0.0001185,"INCLINATION":98.2085,"RA_OF_ASC_NODE":33.1322,"ARG_OF_PERICENTER":74.3175,"MEAN_ANOMALY":37.9902,"EPHEMERIS_TYPE":0,"CLASSIFICATION_TYPE":"U","NORAD_CAT_ID":38337,"ELEMENT_SET_NO":999,"REV_AT_EPOCH":73785,"BSTAR":0.00015472,"MEAN_MOTION_DOT":6.52e-6,"MEAN_MOTION_DDOT":0},{"OBJECT_NAME":"NUSTAR","OBJECT_ID":"2012-031A","EPOCH":"2026-04-01T14:00:00.999360","MEAN_MOTION":15.08027221,"ECCENTRICITY":0.0007595,"INCLINATION":6.0255,"RA_OF_ASC_NODE":248.4236,"ARG_OF_PERICENTER":44.876,"MEAN_ANOMALY":161.811,"EPHEMERIS_TYPE":0,"CLASSIFICATION_TYPE":"U","NORAD_CAT_ID":38358,"ELEMENT_SET_NO":999,"REV_AT_EPOCH":130,"BSTAR":0.00050971,"MEAN_MOTION_DOT":8.947e-5,"MEAN_MOTION_DDOT":0},{"OBJECT_NAME":"NEOSSAT","OBJECT_ID":"2013-009D","EPOCH":"2026-04-01T09:56:36.495456","MEAN_MOTION":14.35797391,"ECCENTRICITY":0.0012108,"INCLINATION":98.4158,"RA_OF_ASC_NODE":273.2764,"ARG_OF_PERICENTER":113.3311,"MEAN_ANOMALY":246.9151,"EPHEMERIS_TYPE":0,"CLASSIFICATION_TYPE":"U","NORAD_CAT_ID":39089,"ELEMENT_SET_NO":999,"REV_AT_EPOCH":68572,"BSTAR":8.1818e-5,"MEAN_MOTION_DOT":1.94e-6,"MEAN_MOTION_DDOT":0},{"OBJECT_NAME":"BRITE-AUSTRIA","OBJECT_ID":"2013-009F","EPOCH":"2026-04-01T10:49:28.155648","MEAN_MOTION":14.36508975,"ECCENTRICITY":0.0011335,"INCLINATION":98.3974,"RA_OF_ASC_NODE":272.7909,"ARG_OF_PERICENTER":107.7606,"MEAN_ANOMALY":252.4819,"EPHEMERIS_TYPE":0,"CLASSIFICATION_TYPE":"U","NORAD_CAT_ID":39091,"ELEMENT_SET_NO":999,"REV_AT_EPOCH":68603,"BSTAR":9.3514e-5,"MEAN_MOTION_DOT":2.32e-6,"MEAN_MOTION_DDOT":0},{"OBJECT_NAME":"IRIS","OBJECT_ID":"2013-033A","EPOCH":"2026-04-01T02:56:13.981920","MEAN_MOTION":14.85715156,"ECCENTRICITY":0.0023808,"INCLINATION":97.9387,"RA_OF_ASC_NODE":290.6233,"ARG_OF_PERICENTER":208.4067,"MEAN_ANOMALY":151.5852,"EPHEMERIS_TYPE":0,"CLASSIFICATION_TYPE":"U","NORAD_CAT_ID":39197,"ELEMENT_SET_NO":999,"REV_AT_EPOCH":68893,"BSTAR":0.00020999,"MEAN_MOTION_DOT":1.775e-5,"MEAN_MOTION_DDOT":0},{"OBJECT_NAME":"HISAKI (SPRINT-A)","OBJECT_ID":"2013-049A","EPOCH":"2026-04-01T09:16:58.211040","MEAN_MOTION":13.55533988,"ECCENTRICITY":0.0136406,"INCLINATION":29.7189,"RA_OF_ASC_NODE":250.4672,"ARG_OF_PERICENTER":114.1951,"MEAN_ANOMALY":247.2944,"EPHEMERIS_TYPE":0,"CLASSIFICATION_TYPE":"U","NORAD_CAT_ID":39253,"ELEMENT_SET_NO":999,"REV_AT_EPOCH":62099,"BSTAR":0.00010589,"MEAN_MOTION_DOT":1.42e-6,"MEAN_MOTION_DDOT":0},{"OBJECT_NAME":"CASSIOPE","OBJECT_ID":"2013-055A","EPOCH":"2026-04-01T11:13:09.954048","MEAN_MOTION":15.20462081,"ECCENTRICITY":0.0307823,"INCLINATION":80.9177,"RA_OF_ASC_NODE":159.5245,"ARG_OF_PERICENTER":320.053,"MEAN_ANOMALY":37.8403,"EPHEMERIS_TYPE":0,"CLASSIFICATION_TYPE":"U","NORAD_CAT_ID":39265,"ELEMENT_SET_NO":999,"REV_AT_EPOCH":65599,"BSTAR":0.00042847,"MEAN_MOTION_DOT":0.00035984,"MEAN_MOTION_DDOT":-3.2061e-7},{"OBJECT_NAME":"STSAT-3","OBJECT_ID":"2013-066G","EPOCH":"2026-04-01T12:38:42.936576","MEAN_MOTION":15.02288998,"ECCENTRICITY":0.0009266,"INCLINATION":97.6145,"RA_OF_ASC_NODE":62.7213,"ARG_OF_PERICENTER":293.5934,"MEAN_ANOMALY":66.4317,"EPHEMERIS_TYPE":0,"CLASSIFICATION_TYPE":"U","NORAD_CAT_ID":39422,"ELEMENT_SET_NO":999,"REV_AT_EPOCH":67269,"BSTAR":0.0003955,"MEAN_MOTION_DOT":5.168e-5,"MEAN_MOTION_DDOT":0},{"OBJECT_NAME":"SWARM B","OBJECT_ID":"2013-067A","EPOCH":"2026-04-01T12:37:14.201184","MEAN_MOTION":15.28073192,"ECCENTRICITY":0.0003018,"INCLINATION":87.7509,"RA_OF_ASC_NODE":5.5759,"ARG_OF_PERICENTER":77.1405,"MEAN_ANOMALY":283.0181,"EPHEMERIS_TYPE":0,"CLASSIFICATION_TYPE":"U","NORAD_CAT_ID":39451,"ELEMENT_SET_NO":999,"REV_AT_EPOCH":67153,"BSTAR":0.00016298,"MEAN_MOTION_DOT":4.493e-5,"MEAN_MOTION_DDOT":0},{"OBJECT_NAME":"SWARM A","OBJECT_ID":"2013-067B","EPOCH":"2026-04-01T11:06:39.807072","MEAN_MOTION":15.49308795,"ECCENTRICITY":0.0003466,"INCLINATION":87.3277,"RA_OF_ASC_NODE":84.7107,"ARG_OF_PERICENTER":95.7405,"MEAN_ANOMALY":264.425,"EPHEMERIS_TYPE":0,"CLASSIFICATION_TYPE":"U","NORAD_CAT_ID":39452,"ELEMENT_SET_NO":999,"REV_AT_EPOCH":69436,"BSTAR":0.00024528,"MEAN_MOTION_DOT":0.00013453,"MEAN_MOTION_DDOT":0},{"OBJECT_NAME":"SWARM C","OBJECT_ID":"2013-067C","EPOCH":"2026-04-01T11:06:33.186240","MEAN_MOTION":15.49305407,"ECCENTRICITY":0.0003468,"INCLINATION":87.3277,"RA_OF_ASC_NODE":83.2918,"ARG_OF_PERICENTER":96.0462,"MEAN_ANOMALY":264.1193,"EPHEMERIS_TYPE":0,"CLASSIFICATION_TYPE":"U","NORAD_CAT_ID":39453,"ELEMENT_SET_NO":999,"REV_AT_EPOCH":69432,"BSTAR":0.00024581,"MEAN_MOTION_DOT":0.0001348,"MEAN_MOTION_DDOT":0},{"OBJECT_NAME":"BRITE-CA1 (TORONTO)","OBJECT_ID":"2014-033L","EPOCH":"2026-04-01T07:48:41.285376","MEAN_MOTION":14.72535306,"ECCENTRICITY":0.0079313,"INCLINATION":97.9607,"RA_OF_ASC_NODE":221.7312,"ARG_OF_PERICENTER":162.1199,"MEAN_ANOMALY":198.2828,"EPHEMERIS_TYPE":0,"CLASSIFICATION_TYPE":"U","NORAD_CAT_ID":40020,"ELEMENT_SET_NO":999,"REV_AT_EPOCH":63090,"BSTAR":0.00026415,"MEAN_MOTION_DOT":1.711e-5,"MEAN_MOTION_DDOT":0}]
